{
    "links": {
        "self": "http://www.neowsapp.com/rest/v1/neo/3774577?api_key=iIulBulltgU6a56xZRHN4H3l9WmuAYTsLGpBGhQ2"
    },
    "id": "3774577",
    "neo_reference_id": "3774577",
    "name": "(2017 JO2)",
    "designation": "2017 JO2",
    "nasa_jpl_url": "http://ssd.jpl.nasa.gov/sbdb.cgi?sstr=3774577",
    "absolute_magnitude_h": 24.4,
    "estimated_diameter": {
        "kilometers": {
            "estimated_diameter_min": 0.0350392641,
            "estimated_diameter_max": 0.0783501764
        },
        "meters": {
            "estimated_diameter_min": 35.0392641108,
            "estimated_diameter_max": 78.3501764334
        },
        "miles": {
            "estimated_diameter_min": 0.0217723826,
            "estimated_diameter_max": 0.0486845275
        },
        "feet": {
            "estimated_diameter_min": 114.9582192654,
            "estimated_diameter_max": 257.0543928497
        }
    },
    "is_potentially_hazardous_asteroid": false,
    "close_approach_data": [
        {
            "close_approach_date": "2017-05-20",
            "close_approach_date_full": "2017-May-20 02:09",
            "epoch_date_close_approach": 1495246140000,
            "relative_velocity": {
                "kilometers_per_second": "10.6711454963",
                "kilometers_per_hour": "38416.1237868521",
                "miles_per_hour": "23870.2853607804"
            },
            "miss_distance": {
                "astronomical": "0.0619766174",
                "lunar": "24.1089041686",
                "kilometers": "9271569.952844938",
                "miles": "5761086.4235706244"
            },
            "orbiting_body": "Earth"
        }
    ],
    "orbital_data": {
        "orbit_id": "2",
        "orbit_determination_date": "2017-05-22 06:19:36",
        "first_observation_date": "2017-05-05",
        "last_observation_date": "2017-05-21",
        "data_arc_in_days": 16,
        "observations_used": 22,
        "orbit_uncertainty": "8",
        "minimum_orbit_intersection": ".0396341",
        "jupiter_tisserand_invariant": "3.564",
        "epoch_osculation": "2457879.5",
        "eccentricity": ".5152698326997545",
        "semi_major_axis": "2.087484921336485",
        "inclination": "9.423067603644311",
        "ascending_node_longitude": "56.21166981956892",
        "orbital_period": "1101.624148695578",
        "perihelion_distance": "1.011866915156174",
        "perihelion_argument": "213.0207238041295",
        "aphelion_distance": "3.163102927516795",
        "perihelion_time": "2457917.462884791324",
        "mean_anomaly": "347.5941004551696",
        "mean_motion": ".3267902218976158",
        "equinox": "J2000",
        "orbit_class": {
            "orbit_class_type": "APO",
            "orbit_class_description": "Near-Earth asteroid orbits which cross the Earth’s orbit similar to that of 1862 Apollo",
            "orbit_class_range": "a (semi-major axis) > 1.0 AU; q (perihelion) < 1.017 AU"
        }
    },
    "is_sentry_object": false
}